SES-2                   
1 37809U 11049A   26201.45854227 -.00000197  00000+0  00000+0 0  9996
2 37809   0.1412  90.8160 0002849  25.5271 259.9551  1.00271620 54291
ARABSAT-5C              
1 37810U 11049B   26201.33711943  .00000122  00000+0  00000+0 0  9999
2 37810   0.0481 355.0961 0003758 144.0671 300.3180  1.00274491 54371
EUTELSAT 7 WEST A       
1 37816U 11051A   26201.40298638 -.00000062  00000+0  00000+0 0  9991
2 37816   0.0603   0.6974 0004862 128.7526 306.4680  1.00271884 54213
QUETZSAT 1              
1 37826U 11054A   26201.46053561 -.00000243  00000+0  00000+0 0  9996
2 37826   0.0405 273.1075 0002873 210.5849 263.3323  1.00271667 50200
INTELSAT 18 (IS-18)     
1 37834U 11056A   26201.52753277  .00000051  00000+0  00000+0 0  9991
2 37834   0.0290 268.2824 0001912 217.2364 182.6819  1.00271038 54149
EUTELSAT 16A            
1 37836U 11057A   26201.33633943  .00000102  00000+0  00000+0 0  9997
2 37836   0.0459  33.8794 0005527  85.9946 315.3173  1.00270380  7664
VIASAT-1                
1 37843U 11059A   26201.45299558  .00000000  00000+0  00000+0 0  9997
2 37843   0.0177  47.5158 0002601  66.5499 232.1427  1.00269193 47654
ASIASAT 7               
1 37933U 11069A   26201.35410617 -.00000335  00000+0  00000+0 0  9990
2 37933   0.0577 259.9179 0001459 191.4485  79.7367  1.00268675 45192
BEIDOU-2 IGSO-5         
1 37948U 11073A   26183.72937883 -.00000128  00000+0  00000+0 0  9990
2 37948  47.6496 271.3544 0114527 222.0502 141.5350  1.00270596 53296
LUCH-5A                 
1 37951U 11074B   26201.47739663 -.00000055  00000+0  00000+0 0  9993
2 37951   8.8363  73.3165 0002809  60.5523 143.2672  1.00274301 53382
NIGCOMSAT 1R            
1 38014U 11077A   26201.27034255  .00000143  00000+0  00000+0 0  9997
2 38014   0.0372 108.9448 0002361 242.8427  86.0733  1.00273819 53281
WGS F4 (USA 233)        
1 38070U 12003A   26201.13682152 -.00000217  00000+0  00000+0 0  9992
2 38070   0.0199  58.0247 0000238 102.5580 274.9977  1.00272908 44472
SES-4                   
1 38087U 12007A   26201.40012637 -.00000170  00000+0  00000+0 0  9997
2 38087   0.0210  28.1985 0002486  96.3492 295.6830  1.00271689 52551
BEIDOU-2 G5             
1 38091U 12008A   26201.62989925  .00000054  00000+0  00000+0 0  9990
2 38091   3.6555  69.4900 0007244 270.4828 243.8456  1.00272256 52704
MUOS-1                  
1 38093U 12009A   26201.47822278 -.00000132  00000+0  00000+0 0  9991
2 38093   5.5419  47.1049 0056482   3.6834 319.6717  1.00271453 52771
INTELSAT 22 (IS-22)     
1 38098U 12011A   26201.49000241 -.00000060  00000+0  00000+0 0  9999
2 38098   0.0231  66.7777 0001840  66.4825  53.5053  1.00272109  7527
APSTAR-7                
1 38107U 12013A   26201.63345259 -.00000102  00000+0  00000+0 0  9996
2 38107   0.0353  97.4207 0003111  29.7721 115.7495  1.00271329 52144
YAHSAT 1B               
1 38245U 12016A   26201.48514905  .00000125  00000+0  00000+0 0  9995
2 38245   0.0867  89.2691 0002622  27.0040  44.2462  1.00272005 45946
AEHF-2 (USA 235)        
1 38254U 12019A   26201.32992606 -.00000141  00000+0  00000+0 0  9998
2 38254   6.7245  57.2333 0002151  65.8683 277.2947  1.00271864  7314
JCSAT-13                
1 38331U 12023A   26201.50029639 -.00000357  00000+0  00000+0 0  9995
2 38331   0.0148  58.4323 0002171  60.0448 123.9100  1.00272280 51870
VINASAT-2               
1 38332U 12023B   26201.52336424 -.00000330  00000+0  00000+0 0  9992
2 38332   0.0145 356.5678 0002355 119.0437 142.9391  1.00271916 46995
NIMIQ 6                 
1 38342U 12026A   26201.46720002 -.00000175  00000+0  00000+0 0  9995
2 38342   0.0579 263.8923 0002911 217.8846 253.5521  1.00271370 50745
ZHONGXING-2A            
1 38352U 12028A   26201.63788003 -.00000294  00000+0  00000+0 0  9994
2 38352   1.5394  83.4626 0001572  38.9586 143.8395  1.00268659 51633
INTELSAT 19 (IS-19)     
1 38356U 12030A   26201.56780771 -.00000057  00000+0  00000+0 0  9994
2 38356   0.0168  42.3023 0003085  75.7300 190.7050  1.00272816 50783
ECHOSTAR 17             
1 38551U 12035A   26201.44975230 -.00000077  00000+0  00000+0 0  9991
2 38551   0.0194  60.8436 0002167  56.3274 235.8532  1.00271757 51394
METEOSAT-10 (MSG-3)     
1 38552U 12035B   26201.33321942 -.00000011  00000+0  00000+0 0  9993
2 38552   4.7483  60.8569 0001404  17.9341 339.3203  1.00272461 51180
SES-5                   
1 38652U 12036A   26201.40506639  .00000033  00000+0  00000+0 0  9994
2 38652   0.0457 318.7632 0002106 162.5169 327.6964  1.00274705 44798
INTELSAT 20 (IS-20)     
1 38740U 12043A   26201.48930907 -.00000026  00000+0  00000+0 0  9990
2 38740   0.0148  75.7186 0001425 108.6271 358.5672  1.00271559 51088
HYLAS 2                 
1 38741U 12043B   26201.46140228 -.00000260  00000+0  00000+0 0  9998
2 38741   2.5111  80.6662 0002507  56.8926 254.2055  1.00271796 51106
INTELSAT 21 (IS-21)     
1 38749U 12045A   26201.46426229 -.00000286  00000+0  00000+0 0  9994
2 38749   0.0411 246.8344 0001787 242.4796 278.0620  1.00271567 50859
ASTRA 2F                
1 38778U 12051A   26201.48124904  .00000149  00000+0  00000+0 0  9997
2 38778   0.0751 254.0565 0003160 287.1573 318.4368  1.00272499 41471
GSAT-10                 
1 38779U 12051B   26201.60579501 -.00000166  00000+0  00000+0 0  9999
2 38779   0.0768 263.9707 0007587 191.7049 143.7957  1.00272732 50431
