OBJECT_NAME,OBJECT_ID,EPOCH,MEAN_MOTION,ECCENTRICITY,INCLINATION,RA_OF_ASC_NODE,ARG_OF_PERICENTER,MEAN_ANOMALY,EPHEMERIS_TYPE,CLASSIFICATION_TYPE,NORAD_CAT_ID,ELEMENT_SET_NO,REV_AT_EPOCH,BSTAR,MEAN_MOTION_DOT,MEAN_MOTION_DDOT
SES-2,2011-049A,2026-07-20T11:00:18.052128,1.00271620,.00028498,0.1412,90.8160,25.5271,259.9551,0,U,37809,999,5429,0,-.197E-5,0
ARABSAT-5C,2011-049B,2026-07-20T08:05:27.118752,1.00274491,.00037584,0.0481,355.0961,144.0671,300.3180,0,U,37810,999,5437,0,.122E-5,0
EUTELSAT 7 WEST A,2011-051A,2026-07-20T09:40:18.023232,1.00271884,.00048626,0.0603,0.6974,128.7526,306.4680,0,U,37816,999,5421,0,-.62E-6,0
QUETZSAT 1,2011-054A,2026-07-20T11:03:10.276704,1.00271667,.00028738,0.0405,273.1075,210.5849,263.3323,0,U,37826,999,5020,0,-.243E-5,0
INTELSAT 18 (IS-18),2011-056A,2026-07-20T12:39:38.831328,1.00271038,.00019124,0.0290,268.2824,217.2364,182.6819,0,U,37834,999,5414,0,.51E-6,0
EUTELSAT 16A,2011-057A,2026-07-20T08:04:19.726752,1.00270380,.00055277,0.0459,33.8794,85.9946,315.3173,0,U,37836,999,766,0,.102E-5,0
VIASAT-1,2011-059A,2026-07-20T10:52:18.818112,1.00269193,.00026012,0.0177,47.5158,66.5499,232.1427,0,U,37843,999,4765,0,0,0
ASIASAT 7,2011-069A,2026-07-20T08:29:54.773088,1.00268675,.00014599,0.0577,259.9179,191.4485,79.7367,0,U,37933,999,4519,0,-.335E-5,0
BEIDOU-2 IGSO-5,2011-073A,2026-07-02T17:30:18.330912,1.00270596,.01145273,47.6496,271.3544,222.0502,141.5350,0,U,37948,999,5329,0,-.128E-5,0
LUCH-5A,2011-074B,2026-07-20T11:27:27.068832,1.00274301,.00028093,8.8363,73.3165,60.5523,143.2672,0,U,37951,999,5338,0,-.55E-6,0
NIGCOMSAT 1R,2011-077A,2026-07-20T06:29:17.596320,1.00273819,.00023618,0.0372,108.9448,242.8427,86.0733,0,U,38014,999,5328,0,.143E-5,0
WGS F4 (USA 233),2012-003A,2026-07-20T03:17:01.379328,1.00272908,.00002386,0.0199,58.0247,102.5580,274.9977,0,U,38070,999,4447,0,-.217E-5,0
SES-4,2012-007A,2026-07-20T09:36:10.918368,1.00271689,.00024869,0.0210,28.1985,96.3492,295.6830,0,U,38087,999,5255,0,-.17E-5,0
BEIDOU-2 G5,2012-008A,2026-07-20T15:07:03.295200,1.00272256,.00072449,3.6555,69.4900,270.4828,243.8456,0,U,38091,999,5270,0,.54E-6,0
MUOS-1,2012-009A,2026-07-20T11:28:38.448192,1.00271453,.0056482,5.5419,47.1049,3.6834,319.6717,0,U,38093,999,5277,0,-.132E-5,0
INTELSAT 22 (IS-22),2012-011A,2026-07-20T11:45:36.208224,1.00272109,.00018408,0.0231,66.7777,66.4825,53.5053,0,U,38098,999,752,0,-.6E-6,0
APSTAR-7,2012-013A,2026-07-20T15:12:10.303776,1.00271329,.00031111,0.0353,97.4207,29.7721,115.7495,0,U,38107,999,5214,0,-.102E-5,0
YAHSAT 1B,2012-016A,2026-07-20T11:38:36.877920,1.00272005,.00026223,0.0867,89.2691,27.0040,44.2462,0,U,38245,999,4594,0,.125E-5,0
AEHF-2 (USA 235),2012-019A,2026-07-20T07:55:05.611584,1.00271864,.00021512,6.7245,57.2333,65.8683,277.2947,0,U,38254,999,731,0,-.141E-5,0
JCSAT-13,2012-023A,2026-07-20T12:00:25.608096,1.00272280,.00021714,0.0148,58.4323,60.0448,123.9100,0,U,38331,999,5187,0,-.357E-5,0
VINASAT-2,2012-023B,2026-07-20T12:33:38.670336,1.00271916,.00023557,0.0145,356.5678,119.0437,142.9391,0,U,38332,999,4699,0,-.33E-5,0
NIMIQ 6,2012-026A,2026-07-20T11:12:46.081728,1.00271370,.00029111,0.0579,263.8923,217.8846,253.5521,0,U,38342,999,5074,0,-.175E-5,0
ZHONGXING-2A,2012-028A,2026-07-20T15:18:32.834592,1.00268659,.00015729,1.5394,83.4626,38.9586,143.8395,0,U,38352,999,5163,0,-.294E-5,0
INTELSAT 19 (IS-19),2012-030A,2026-07-20T13:37:38.586144,1.00272816,.00030853,0.0168,42.3023,75.7300,190.7050,0,U,38356,999,5078,0,-.57E-6,0
ECHOSTAR 17,2012-035A,2026-07-20T10:47:38.598720,1.00271757,.00021677,0.0194,60.8436,56.3274,235.8532,0,U,38551,999,5139,0,-.77E-6,0
METEOSAT-10 (MSG-3),2012-035B,2026-07-20T07:59:50.157888,1.00272461,.0001404,4.7483,60.8569,17.9341,339.3203,0,U,38552,999,5118,0,-.11E-6,0
SES-5,2012-036A,2026-07-20T09:43:17.736096,1.00274705,.0002106,0.0457,318.7632,162.5169,327.6964,0,U,38652,999,4479,0,.33E-6,0
INTELSAT 20 (IS-20),2012-043A,2026-07-20T11:44:36.303648,1.00271559,.00014252,0.0148,75.7186,108.6271,358.5672,0,U,38740,999,5108,0,-.26E-6,0
HYLAS 2,2012-043B,2026-07-20T11:04:25.156992,1.00271796,.00025074,2.5111,80.6662,56.8926,254.2055,0,U,38741,999,5110,0,-.26E-5,0
INTELSAT 21 (IS-21),2012-045A,2026-07-20T11:08:32.261856,1.00271567,.00017872,0.0411,246.8344,242.4796,278.0620,0,U,38749,999,5085,0,-.286E-5,0
ASTRA 2F,2012-051A,2026-07-20T11:32:59.917056,1.00272499,.00031605,0.0751,254.0565,287.1573,318.4368,0,U,38778,999,4147,0,.149E-5,0
GSAT-10,2012-051B,2026-07-20T14:32:20.688864,1.00272732,.0007587,0.0768,263.9707,191.7049,143.7957,0,U,38779,999,5043,0,-.166E-5,0
